      2.10          N: GNSS NAV DATA                        RINEX VERSION / TYPE
fic2rin                                 09/12/2022 00:17:32 PGM / RUN BY / DATE
                                                            END OF HEADER
14 22  9 11  8  0  0.0 -.104329083115D-03  .250111042988D-11  .000000000000D+00
     .191000000000D+03  .450000000000D+01  .537058084911D-08 -.138158737687D+01
     .115483999252D-06  .228392682038D-02  .287964940071D-05  .515364870453D+04
     .288000000000D+05  .000000000000D+00 -.145391430125D+01 -.335276126862D-07
     .950966999387D+00  .317500000000D+03 -.303997284275D+01 -.869893377408D-08
     .155363614375D-09  .100000000000D+01  .222700000000D+04  .000000000000D+00
     .240000000000D+01  .000000000000D+00 -.791624188423D-08  .959000000000D+03
     .216000000000D+05  .400000000000D+01
28 22  9 11  8  0  0.0  .338819343597D-03 -.193267624127D-11  .000000000000D+00
     .190000000000D+02 -.225000000000D+01  .497449292188D-08  .269765854687D+01
    -.242143869400D-06  .164713286795D-01  .282749533653D-05  .515365385818D+04
     .288000000000D+05  .251457095146D-06 -.139741888175D+01  .186264514923D-07
     .966620167244D+00  .326531250000D+03 -.126453508229D+01 -.825820113008D-08
    -.239295681911D-10  .100000000000D+01  .222700000000D+04  .000000000000D+00
     .240000000000D+01  .630000000000D+02 -.111758708954D-07  .190000000000D+02
     .216000000000D+05  .400000000000D+01
1  22  9 11  7 59 44.0  .285916030407D-03 -.659383658785D-11  .000000000000D+00
     .700000000000D+01  .895937500000D+02  .393123518030D-08  .374263745016D-02
     .477582216263D-05  .120062469505D-01  .112336128950D-04  .515366288948D+04
     .287840000000D+05 -.260770320892D-07  .618217393567D+00  .176951289177D-06
     .988628368271D+00  .177187500000D+03  .944226529728D+00 -.795961726429D-08
     .301083969927D-09  .100000000000D+01  .222700000000D+04  .000000000000D+00
     .240000000000D+01  .000000000000D+00  .512227416039D-08  .700000000000D+01
     .222900000000D+05  .400000000000D+01
5  22  9 11  7 59 44.0 -.962452031672D-04 -.147792889038D-11  .000000000000D+00
     .500000000000D+01  .251250000000D+02  .500556564476D-08  .253963780494D+01
     .112317502499D-05  .611563539132D-02  .215135514736D-05  .515377633476D+04
     .287840000000D+05  .372529029846D-08  .160824990865D+01 -.614672899246D-07
     .961923196648D+00  .337625000000D+03  .110843309786D+01 -.852928385034D-08
     .428589281035D-11  .100000000000D+01  .222700000000D+04  .000000000000D+00
     .240000000000D+01  .000000000000D+00 -.111758708954D-07  .500000000000D+01
     .224100000000D+05  .400000000000D+01
16 22  9 11  7 59 44.0 -.523772090673D-03 -.113686837722D-11  .000000000000D+00
     .280000000000D+02 -.718750000000D+01  .492627662777D-08 -.310928432725D+01
    -.497326254845D-06  .127619795967D-01  .308267772198D-05  .515370104790D+04
     .287840000000D+05 -.391155481339D-07 -.140082284781D+01 -.219792127609D-06
     .967427215261D+00  .326812500000D+03  .732826746615D+00 -.824927218673D-08
     .500020827875D-10  .100000000000D+01  .222700000000D+04  .000000000000D+00
     .240000000000D+01  .000000000000D+00 -.102445483208D-07  .280000000000D+02
     .267000000000D+05  .400000000000D+01
3  22  9 11  7 59 44.0 -.349056441337D-03 -.636646291241D-11  .000000000000D+00
     .270000000000D+02  .909375000000D+01  .476091259683D-08 -.110328767997D+01
     .417232513428D-06  .449985568412D-02  .227056443691D-05  .515354907036D+04
     .287840000000D+05  .484287738800D-07  .165141672395D+01  .596046447754D-07
     .974905563244D+00  .343187500000D+03  .105476888274D+01 -.849535386559D-08
    -.714315468392D-10  .100000000000D+01  .222700000000D+04  .000000000000D+00
     .240000000000D+01  .000000000000D+00  .186264514923D-08  .270000000000D+02
     .267600000000D+05  .400000000000D+01
24 22  9 11  7 59 44.0  .139371491969D-03 -.128466126625D-10  .000000000000D+00
     .300000000000D+01  .429687500000D+02  .494949188049D-08  .329981246941D+00
     .232458114624D-05  .129503272474D-01  .115931034088D-04  .515367956161D+04
     .287840000000D+05 -.800937414169D-07 -.261974041102D+01  .225380063057D-06
     .934485145492D+00  .145906250000D+03  .835675813869D+00 -.839142096494D-08
     .400730977768D-09  .100000000000D+01  .222700000000D+04  .000000000000D+00
     .240000000000D+01  .000000000000D+00  .279396772385D-08  .300000000000D+01
     .267600000000D+05  .400000000000D+01
1  22  9 11  9 59 44.0  .285868532956D-03 -.659383658785D-11  .000000000000D+00
     .180000000000D+02  .811562500000D+02  .394909306701D-08  .105390786768D+01
     .436790287495D-05  .120055770967D-01  .112336128950D-04  .515366200256D+04
     .359840000000D+05 -.149011611938D-06  .618160392427D+00  .149011611938D-06
     .988630312489D+00  .179000000000D+03  .944245519867D+00 -.792390149087D-08
     .267511142913D-09  .100000000000D+01  .222700000000D+04  .000000000000D+00
     .240000000000D+01  .000000000000D+00  .512227416039D-08  .180000000000D+02
     .288000000000D+05  .400000000000D+01
5  22  9 11  9 59 44.0 -.962554477155D-04 -.147792889038D-11  .000000000000D+00
     .600000000000D+01  .240312500000D+02  .508771192362D-08 -.269343152846D+01
     .127591192722D-05  .611586077139D-02  .213272869587D-05  .515377592659D+04
     .359840000000D+05  .987201929092D-07  .160818796577D+01 -.372529029846D-07
     .961923312218D+00  .339125000000D+03  .110843940304D+01 -.857035698977D-08
     .735744932444D-10  .100000000000D+01  .222700000000D+04  .000000000000D+00
     .240000000000D+01  .000000000000D+00 -.111758708954D-07  .600000000000D+01
     .288000000000D+05  .400000000000D+01
3  22  9 11  9 59 44.0 -.349102541804D-03 -.636646291241D-11  .000000000000D+00
     .980000000000D+02  .132500000000D+02  .479877131666D-08 -.530401971771D-01
     .700354576111D-06  .450026826002D-02  .228174030781D-05  .515354967690D+04
     .359840000000D+05  .111758708954D-07  .165135531211D+01  .335276126862D-07
     .974904926875D+00  .341187500000D+03  .105478062558D+01 -.853142679674D-08
    -.646455498895D-10  .100000000000D+01  .222700000000D+04  .000000000000D+00
     .240000000000D+01  .000000000000D+00  .186264514923D-08  .980000000000D+02
     .288000000000D+05  .400000000000D+01
24 22  9 11  9 59 44.0  .139279291034D-03 -.128466126625D-10  .000000000000D+00
     .400000000000D+01  .393125000000D+02  .476591280511D-08  .137990964975D+01
     .212341547012D-05  .129535122542D-01  .131037086248D-04  .515368819618D+04
     .359840000000D+05 -.184401869774D-06 -.261980041846D+01  .894069671631D-07
     .934487613434D+00  .113812500000D+03  .835923876499D+00 -.835856245339D-08
     .331442377334D-09  .100000000000D+01  .222700000000D+04  .000000000000D+00
     .240000000000D+01  .000000000000D+00  .279396772385D-08  .400000000000D+01
     .288000000000D+05  .400000000000D+01
16 22  9 11  9 59 44.0 -.523780472577D-03 -.113686837722D-11  .000000000000D+00
     .290000000000D+02 -.340625000000D+01  .483555856328D-08 -.205909562889D+01
    -.495463609695D-06  .127613616642D-01  .285543501377D-05  .515370229340D+04
     .359840000000D+05  .152736902237D-06 -.140088347114D+01 -.968575477600D-07
     .967428028643D+00  .323312500000D+03  .732804972543D+00 -.831784647169D-08
     .218580533328D-09  .100000000000D+01  .222700000000D+04  .000000000000D+00
     .240000000000D+01  .000000000000D+00 -.102445483208D-07  .290000000000D+02
     .288000000000D+05  .400000000000D+01
2  22  9 11 10  0  0.0 -.646409112960D-03  .125055521494D-11  .000000000000D+00
     .830000000000D+02  .609062500000D+02  .436625330055D-08  .698673414324D+00
     .317580997944D-05  .199687699787D-01  .127293169498D-04  .515489758492D+04
     .360000000000D+05 -.253319740295D-06  .524648543181D+00 -.149011611938D-06
     .966637028838D+00  .143031250000D+03 -.139469788631D+01 -.830570310873D-08
     .307869966877D-09  .100000000000D+01  .222700000000D+04  .000000000000D+00
     .240000000000D+01  .000000000000D+00 -.172294676304D-07  .830000000000D+02
     .288000000000D+05  .400000000000D+01
12 22  9 11 10  0  0.0 -.276579987258D-03 -.602540239925D-11  .000000000000D+00
     .380000000000D+02  .446875000000D+01  .499949396328D-08 -.272505447037D+00
     .122934579849D-06  .849893759005D-02  .357255339622D-05  .515373201561D+04
     .360000000000D+05 -.912696123123D-07 -.141936463812D+01  .109896063805D-06
     .967588744824D+00  .321000000000D+03  .131676277184D+01 -.862964517365D-08
     .148934775160D-09  .100000000000D+01  .222700000000D+04  .000000000000D+00
     .240000000000D+01  .000000000000D+00 -.125728547573D-07  .380000000000D+02
     .288000000000D+05  .400000000000D+01
